[{"OBJECT_NAME":"GENMAT-1","OBJECT_ID":"2023-174W","EPOCH":"2026-03-09T18:03:23.351040","MEAN_MOTION":15.32594666,"ECCENTRICITY":0.00074416,"INCLINATION":97.3728,"RA_OF_ASC_NODE":146.8236,"ARG_OF_PERICENTER":169.2515,"MEAN_ANOMALY":190.8888,"EPHEMERIS_TYPE":0,"CLASSIFICATION_TYPE":"U","NORAD_CAT_ID":58276,"ELEMENT_SET_NO":999,"REV_AT_EPOCH":12973,"BSTAR":0.00042157222,"MEAN_MOTION_DOT":0.0001321,"MEAN_MOTION_DDOT":0},{"OBJECT_NAME":"STARLINK-32877","OBJECT_ID":"2025-029N","EPOCH":"2026-03-09T16:31:39.662400","MEAN_MOTION":15.30225234,"ECCENTRICITY":0.00014495,"INCLINATION":53.1575,"RA_OF_ASC_NODE":232.7287,"ARG_OF_PERICENTER":113.6771,"MEAN_ANOMALY":246.4382,"EPHEMERIS_TYPE":0,"CLASSIFICATION_TYPE":"U","NORAD_CAT_ID":62960,"ELEMENT_SET_NO":999,"REV_AT_EPOCH":6129,"BSTAR":0.00054166834,"MEAN_MOTION_DOT":0.0001573,"MEAN_MOTION_DDOT":0}]
